[{"OBJECT_NAME":"STARLINK-34344","OBJECT_ID":"2025-112P","EPOCH":"2026-03-09T16:19:10.168320","MEAN_MOTION":15.05656993,"ECCENTRICITY":0.0001439,"INCLINATION":97.6036,"RA_OF_ASC_NODE":121.4644,"ARG_OF_PERICENTER":102.9545,"MEAN_ANOMALY":257.1842,"EPHEMERIS_TYPE":0,"CLASSIFICATION_TYPE":"U","NORAD_CAT_ID":64159,"ELEMENT_SET_NO":999,"REV_AT_EPOCH":4330,"BSTAR":0.00040782382,"MEAN_MOTION_DOT":5.83e-5,"MEAN_MOTION_DDOT":0},{"OBJECT_NAME":"MINOTAUR 4 R\/B","OBJECT_ID":"2020-046E","EPOCH":"2026-03-09T23:21:28.488960","MEAN_MOTION":15.06543892,"ECCENTRICITY":0.00095926,"INCLINATION":53.9792,"RA_OF_ASC_NODE":306.0413,"ARG_OF_PERICENTER":86.078,"MEAN_ANOMALY":274.1318,"EPHEMERIS_TYPE":0,"CLASSIFICATION_TYPE":"U","NORAD_CAT_ID":45877,"ELEMENT_SET_NO":999,"REV_AT_EPOCH":23396,"BSTAR":0.00016618262,"MEAN_MOTION_DOT":2.204e-5,"MEAN_MOTION_DDOT":0}]
